C/2018 A6 (Gibbs),e,77.0565,340.3810,264.3995,15.11069,0.0167794,0.80030732,16.7037,04/03.0/2022,2000,g  9.0,4.0
# From MPC118841
C/2018 B1 (Lemmon),e,162.4204,133.1903,68.3529,10588,0.0000009,0.99951609,0.0000,03/28.4277/2018,2000,g  9.0,4.0
# From MPC114601
P/2018 C1 (Lemmon-Read),e,5.1144,270.3541,235.7070,5.653579,0.0733194,0.53216734,109.8950,04/03.0/2022,2000,g 13.5,4.0
# From MPC114601
C/2018 C2 (Lemmon),h,05/31.9248/2018,34.4624,91.1954,134.0762,1.000298,1.960356,2000,13.0,4.0
# From MPEC 2021-U31
C/2018 DO4 (Lemmon),e,160.4502,251.3949,176.2636,25.42848,0.0076864,0.90515641,7.3758,04/03.0/2022,2000,g 11.0,4.0
# From MPC114602
C/2018 E1 (ATLAS),e,72.5140,146.8623,299.3229,53.86355,0.0024932,0.94994131,3.6059,04/03.0/2022,2000,g 10.5,4.0
# From MPC114602
C/2018 E2 (Barros),e,97.6556,67.1718,277.4473,3548,0.0000047,0.99889559,0.0000,12/23.9250/2017,2000,g 10.5,4.0
# From MPC114602
C/2018 EN4 (NEOWISE),e,81.9276,136.1281,35.0642,18.00799,0.0128975,0.91887842,18.0505,04/03.0/2022,2000,g 15.0,4.0
# From MPC114602
C/2018 EF9 (Lemmon),e,84.6170,172.5537,72.6238,485.8713,0.0000920,0.99678993,0.0000,05/21.9896/2018,2000,g 18.0,2.0
# From MPEC 2021-R75
C/2018 F1 (Grauer),e,46.0777,177.2756,71.6085,255.6887,0.0002411,0.98828324,0.0000,12/12.8726/2018,2000,g 11.5,4.0
# From MPC110084
C/2018 F3 (Johnson),p,08/15.2314/2017,105.5348,293.0113,2.483172,173.0311,2000,13.0,4.0
# From MPEC 2021-W31
C/2018 F4 (PANSTARRS),h,12/03.8248/2019,78.0863,26.5157,263.2301,1.000561,3.441911,2000,11.0,6.0
# From MPEC 2021-Y10
C/2018 F4-A,h,12/03.8130/2019,78.0865,26.5159,263.2269,1.000509,3.441779,2000,11.0,6.0
# From MPEC 2021-W31
C/2018 F4-B,h,12/03.7493/2019,78.0873,26.5155,263.2119,1.000606,3.441562,2000,11.0,6.0
# From MPC114602
P/2018 H2 (PANSTARRS),e,7.3962,68.2103,119.9595,4.386318,0.1072887,0.54121067,164.4342,04/03.0/2022,2000,g 16.6,2.0
# From MPC114602
C/2018 K1 (Weiland),e,164.1924,260.1167,325.1909,30.13898,0.0059568,0.93752618,8.6775,04/03.0/2022,2000,g 14.9,4.0
# From MPEC 2021-R75
C/2018 KJ3 (Lemmon),e,136.6943,91.6279,217.6780,949.0465,0.0000337,0.99617572,0.0000,09/09.9063/2019,2000,g 12.2,2.0
# From MPC114602
P/2018 L1 (PANSTARRS),e,10.5853,268.6280,18.0277,3.652562,0.1411912,0.48230663,174.7532,04/03.0/2022,2000,g 15.0,4.0
# From MPEC 2021-P47
C/2018 L2 (ATLAS),e,67.3166,243.0148,56.3047,261.2146,0.0002335,0.99343682,0.0000,12/02.5678/2018,2000,g 10.0,4.0
# From MPC114603
P/2018 L4 (PANSTARRS),e,26.6243,145.1562,140.6156,4.943681,0.0896661,0.65960583,120.2894,04/03.0/2022,2000,g 17.5,4.0
# From MPC119996
P/2018 L5 (Leonard),e,2.2082,219.0722,93.9130,3.628578,0.1425934,0.36453441,203.6978,04/03.0/2022,2000,g 14.5,4.0
# From MPC117070
C/2018 M1 (Catalina),e,37.3009,339.4092,14.2059,21.44350,0.0099257,0.93921842,13.5219,04/03.0/2022,2000,g 15.5,4.0
# From MPC112393
C/2018 N1 (NEOWISE),e,159.4303,292.4861,354.6981,378.4970,0.0001338,0.99653722,0.0000,08/02.3143/2018,2000,g 15.5,4.0
# From MPEC 2022-F14
C/2018 N2 (ASASSN),h,11/11.1062/2019,77.5420,25.2178,24.4379,1.000469,3.125876,2000,6.0,4.0
# From MPC114603
C/2018 O1 (ATLAS),e,154.0214,87.7157,162.6673,28.04228,0.0066372,0.94435540,8.6947,04/03.0/2022,2000,g 17.0,4.0
# From MPC114603
P/2018 P3 (PANSTARRS),e,8.9122,59.1631,305.9290,3.005062,0.1892012,0.41693835,240.3399,04/03.0/2022,2000,g 14.5,4.0
# From MPC114603
P/2018 P4 (PANSTARRS),e,23.1099,353.0614,8.3387,6.679283,0.0570965,0.45066667,70.8738,04/03.0/2022,2000,g 12.0,4.0
# From MPEC 2021-P47
C/2018 P5 (PANSTARRS),e,7.2490,216.2186,131.8560,12.82851,0.0214506,0.64285219,24.2439,04/03.0/2022,2000,g 11.0,4.0
# From MPC118841
C/2018 R3 (Lemmon),e,69.7264,324.6326,112.7715,1563,0.0000159,0.99917722,0.0000,06/07.4737/2019,2000,g  9.5,4.0
# From MPC112393
C/2018 R4 (Fuls),e,11.6782,298.4820,345.3191,336.7527,0.0001595,0.99489434,0.0000,03/03.1933/2018,2000,g 14.0,4.0
# From MPC114603
C/2018 R5 (Lemmon),e,103.7498,171.1136,178.1263,22.83407,0.0090329,0.84112824,10.6488,04/03.0/2022,2000,g 11.5,4.0
# From MPEC 2022-F14
C/2018 U1 (Lemmon),h,11/03.1393/2021,108.3033,75.4811,180.4716,1.001454,4.993016,2000,5.0,4.0
# From MPC114604
C/2018 V1 (Machholz-Fujikawa-Iwamoto),h,12/02.9434/2018,144.0679,128.9369,88.9502,1.000333,0.388415,2000,12.0,4.0
# From MPC115884
C/2018 V2 (ATLAS),e,159.1676,357.0793,318.9592,25.03938,0.0078663,0.90094382,9.6304,04/03.0/2022,2000,g 15.0,4.0
# From MPC114604
P/2018 VN2 (Leonard),e,18.2571,226.4731,138.8001,4.064212,0.1202928,0.47883896,167.9835,04/03.0/2022,2000,g 15.0,4.0
# From MPEC 2021-P47
A/2018 V3,e,164.9743,308.6697,3.5761,125.3078,0.0007026,0.98929470,0.0000,09/08.8388/2019,2000,g 15.7,2.0
# From MPC114604
C/2018 V4 (Africano),e,69.0132,78.3228,359.9266,203.7992,0.0003388,0.98432088,0.0000,03/01.3870/2019,2000,g 12.5,4.0
# From MPEC 2021-P47
P/2018 V5 (Trujillo-Sheppard),e,10.5887,171.2866,260.6559,8.956236,0.0367719,0.47509912,46.9938,04/03.0/2022,2000,g 12.5,4.0
# From MPEC 2021-P47
C/2018 W1 (Catalina),e,83.3242,233.6249,251.2317,21.67670,0.0097659,0.93724988,10.3258,04/03.0/2022,2000,g 15.5,2.0
# From MPEC 2021-P47
C/2018 W2 (Africano),h,09/05.4584/2019,116.6244,181.8216,158.0112,1.000437,1.457652,2000,9.5,4.0
# From MPC119996
C/2018 X2 (Fitzsimmons),e,23.0694,340.8300,161.9969,142.0995,0.0005819,0.98504875,0.0000,07/08.2050/2019,2000,g 12.0,4.0
# From MPC114604
C/2018 X3 (PANSTARRS),e,43.3869,78.8664,359.7326,12.36973,0.0226550,0.78227424,26.9431,04/03.0/2022,2000,g 14.5,4.0
# From MPC118842
C/2018 Y1 (Iwamoto),e,160.4005,147.5097,357.9662,134.8934,0.0006291,0.99048297,0.0000,02/06.6054/2019,2000,g 11.5,4.0
# From MPC114605
P/2018 Y2 (Africano),e,11.6825,297.2433,162.2673,7.455844,0.0484127,0.47880088,57.4922,04/03.0/2022,2000,g 11.5,4.0
# From MPC114605
P/2019 A1 (PANSTARRS),e,13.7458,312.2910,150.7260,5.118977,0.0850999,0.56858776,108.1112,04/03.0/2022,2000,g 16.0,4.0
# From MPEC 2021-P47
P/2019 A2 (ATLAS),e,14.8599,139.4666,323.9169,5.717381,0.0720955,0.38159479,88.6685,04/03.0/2022,2000,g 10.5,4.0
# From MPEC 2021-P47
P/2019 A3 (PANSTARRS),e,15.3731,31.2918,325.5669,3.145720,0.1766542,0.26596613,236.4637,04/03.0/2022,2000,g 16.0,4.0
# From MPC114605
P/2019 A4 (PANSTARRS),e,13.3064,119.2580,342.5815,2.614546,0.2331362,0.08724283,282.4334,04/03.0/2022,2000,g 15.0,4.0
# From MPEC 2021-P47
C/2019 A5 (PANSTARRS),e,67.5581,146.6253,355.8782,21.52682,0.0098681,0.70645618,10.1693,04/03.0/2022,2000,g  9.5,4.0
# From MPC114605
P/2019 A6 (Lemmon-PANSTARRS),e,33.2435,280.2357,156.1786,5.359374,0.0794388,0.63940863,104.2704,04/03.0/2022,2000,g 16.0,4.0
# From MPC115884
P/2019 A8 (PANSTARRS),e,2.2443,116.3152,64.3807,4.191021,0.1148747,0.26877060,149.0135,04/03.0/2022,2000,g 16.0,4.0
# From MPC118842
C/2019 A9 (PANSTARRS),e,84.1868,278.3872,237.9342,39.26038,0.0040066,0.96355198,3.9340,04/03.0/2022,2000,g 15.0,4.0
# From MPC114606
C/2019 B1 (Africano),e,123.3738,290.4190,174.8032,139.3547,0.0005991,0.98854237,0.0000,03/19.2454/2019,2000,g 16.0,4.0
# From MPC115885
P/2019 B2 (Groeller),e,17.0100,175.7637,0.8986,3.896626,0.1281359,0.36680570,132.1135,04/03.0/2022,2000,g 14.5,4.0
# From MPEC 2022-C56
C/2019 B3 (PANSTARRS),h,01/20.3952/2021,66.5354,358.4367,263.9440,1.001276,6.823706,2000,5.5,4.0
# From MPEC 2021-P47
C/2019 C1 (ATLAS),e,36.0408,212.3865,319.1423,675.8878,0.0000561,0.99026505,0.0000,05/04.9527/2020,2000,g 10.0,4.0
# From MPC118842
C/2019 D1 (Flewelling),e,34.0434,231.6925,70.6033,143.1276,0.0005756,0.98894806,0.0000,05/11.7199/2019,2000,g 13.0,4.0
# From MPEC 2022-F14
C/2019 E3 (ATLAS),h,11/13.9679/2023,84.2976,347.2542,280.6520,1.001808,10.313716,2000,2.5,4.0
# From MPEC 2022-F14
C/2019 F1 (ATLAS-Africano),h,06/22.9967/2021,54.1777,38.7115,251.1686,1.003744,3.596192,2000,5.5,4.0
# From MPEC 2021-P47
C/2019 F2 (ATLAS),e,19.2297,175.5601,11.5315,16.66864,0.0144828,0.86534106,13.5773,04/03.0/2022,2000,g 12.0,4.0
# From MPEC 2021-P47
A/2019 G2,e,159.2083,208.1534,82.6196,539.7580,0.0000786,0.99575406,0.0000,12/09.5658/2019,2000,g 16.5,2.0
# From MPEC 2021-N06
A/2019 G4,h,09/16.1037/2018,138.3776,130.4628,287.8445,1.002050,5.854607,2000,13.0,2.0
# From MPC114607
P/2019 GG21 (PANSTARRS),e,6.0844,340.5680,208.6151,7.473150,0.0482446,0.47227126,51.0544,04/03.0/2022,2000,g 12.0,4.0
# From MPC115885
C/2019 H1 (NEOWISE),e,104.5260,269.2289,19.3475,241.4846,0.0002626,0.99235472,0.0000,04/27.9329/2019,2000,g 15.5,4.0
# From MPC118842
C/2019 J1 (Lemmon),e,24.5481,98.1154,167.7891,68.94098,0.0017218,0.96399194,1.8773,04/03.0/2022,2000,g 12.0,4.0
# From MPEC 2021-R75
C/2019 J2 (Palomar),e,105.2139,25.5358,98.7306,160.7876,0.0004834,0.98926954,0.0000,07/19.8904/2019,2000,g 13.0,4.0
# From MPC117071
C/2019 J3 (ATLAS),h,08/02.1770/2019,131.3914,270.5595,16.6198,1.000634,2.374112,2000,13.5,4.0
# From MPC117071
C/2019 JU6 (ATLAS),e,148.3261,21.7719,94.9588,362.6962,0.0001427,0.99435779,0.0000,06/01.1590/2019,2000,g 14.5,4.0
# From MPEC 2021-P47
C/2019 K1 (ATLAS),h,02/12.9761/2020,87.1034,73.3664,265.7145,1.000016,2.012689,2000,10.0,4.0
# From MPC119997
C/2019 K4 (Ye),e,105.2970,180.1441,139.8036,1316,0.0000206,0.99828079,0.0000,06/15.9948/2019,2000,g 12.5,4.0
# From MPEC 2021-P47
C/2019 K5 (Young),e,15.3185,177.1315,175.0578,163.7852,0.0004702,0.98755919,0.0000,06/23.0436/2019,2000,g 13.0,4.0
# From MPEC 2021-P47
C/2019 K6 (PANSTARRS),e,132.3837,42.9694,187.6342,1905,0.0000119,0.99793813,0.0000,05/20.2498/2020,2000,g 11.5,4.0
# From MPEC 2022-F14
C/2019 K7 (Smith),h,06/17.3147/2020,103.5420,307.9369,27.3616,1.000378,4.476911,2000,6.0,4.0
# From MPEC 2021-R75
C/2019 K8 (ATLAS),e,93.1938,291.0452,85.3930,2604,0.0000074,0.99877333,0.0000,07/21.6952/2019,2000,g 11.5,4.0
# From MPC118095
C/2019 L1 (PANSTARRS),e,9.9873,254.4253,50.0128,9.841899,0.0319217,0.70587133,30.8271,04/03.0/2022,2000,g 13.5,4.0
# From MPC115886
C/2019 L2 (NEOWISE),e,152.2027,12.5557,18.7913,24.91757,0.0079240,0.93483712,8.6952,04/03.0/2022,2000,g 16.0,4.0
# From MPEC 2021-Y10
P/2019 LD2 (ATLAS),e,11.6191,179.5895,121.8691,5.243757,0.0820805,0.12804518,60.7248,04/03.0/2022,2000,g  8.5,4.0
# From MPEC 2022-F14
